STARLETTE               
1 07646U 75010A   24010.46344245 -.00000132  00000+0  98665-5 0  9990
2 07646  49.8253  12.4979 0205762   7.1257 353.2486 13.82323471471593
LAGEOS 1                
1 08820U 76039A   24009.38578208  .00000026  00000+0  00000+0 0  9995
2 08820 109.8249 234.5329 0044597 133.3600   9.0042  6.38664807856312
AJISAI (EGS)            
1 16908U 86061A   24009.96617319 -.00000096  00000+0  11926-4 0  9990
2 16908  50.0114   1.7031 0011333  76.9131 319.7658 12.44503256369668
COSMOS 1989 (ETALON 1)  
1 19751U 89001C   24009.27852281 -.00000008  00000+0  00000+0 0  9998
2 19751  64.4861 102.7408 0024014 215.3712 149.2278  2.13156105272400
COSMOS 2024 (ETALON 2)  
1 20026U 89039C   24010.41811199 -.00000047  00000+0  00000+0 0  9990
2 20026  65.4028 340.9693 0019200 218.0117 306.7237  2.13204243269548
LAGEOS 2                
1 22195U 92070B   24009.60812138 -.00000009  00000+0  00000+0 0  9999
2 22195  52.6516 108.8327 0138022 157.9216 194.6720  6.47293787737821
STELLA                  
1 22824U 93061B   24009.97251545 -.00000013  00000+0  13478-4 0  9991
2 22824  98.9034  53.5818 0005504 306.0731 127.8945 14.27415855577914
LARETS                  
1 27944U 03042F   24010.42269280  .00000122  00000+0  33004-4 0  9993
2 27944  98.2888 149.6092 0011168 294.9660  65.0381 14.63438024 83431
LARES                   
1 38077U 12006A   24010.29251565 -.00000043  00000+0 -25197-4 0  9992
2 38077  69.4910  10.5565 0008441 177.3418 182.7655 12.54931238545642
LARES-2                 
1 53105U 22080A   24009.05359260  .00000026  00000+0  00000+0 0  9997
2 53105  70.1359 250.6050 0005187 172.9108 187.1824  6.38965199 34798
